INTELSAT 35E (IS-35E)   
1 42818U 17041A   26166.46604503 -.00000235  00000+0  00000+0 0  9994
2 42818   0.0155 316.3305 0001590 122.6631 318.0353  1.00269221 32790
COSMOS 2520             
1 42907U 17046A   26166.26794127  .00000140  00000+0  00000+0 0  9992
2 42907   0.0473  88.1890 0001592  33.7731 283.0557  1.00277164 32376
TDRS 13                 
1 42915U 17047A   26166.39929487 -.00000099  00000+0  00000+0 0  9999
2 42915   3.4512   2.6947 0014412 106.3581 286.9405  1.00271392 32332
QZS-3 (MICHIBIKI-3)     
1 42917U 17048A   26166.40600233  .00000000  00000+0  00000+0 0  9990
2 42917   0.0286 151.4721 0002440 301.5367  83.7722  1.00263567 32247
AMAZONAS 5              
1 42934U 17053A   26166.46084501 -.00000280  00000+0  00000+0 0  9996
2 42934   0.0317 326.7301 0002051  63.4336 338.4803  1.00269029 32025
ASIASAT 9               
1 42942U 17057A   26166.35452458  .00000000  00000+0  00000+0 0  9996
2 42942   0.0420  47.1442 0002477  30.2494  76.0273  1.00263930 31848
INTELSAT 37E (IS-37E)   
1 42950U 17059A   26166.39790821 -.00000137  00000+0  00000+0 0  9992
2 42950   0.0184  20.8353 0002330  85.6069 282.5015  1.00271794 32041
BSAT-4A                 
1 42951U 17059B   26165.81711391 -.00000344  00000+0  00000+0 0  9994
2 42951   0.0440  28.2570 0003862  39.4526 239.3850  1.00269277 31775
QZS-4 (MICHIBIKI-4)     
1 42965U 17062A   26166.35591125 -.00000342  00000+0  00000+0 0  9992
2 42965  40.1089 343.5053 0745223 271.7370 273.6485  1.00250711 31784
SES-11 (ECHOSTAR 105)   
1 42967U 17063A   26166.43565373 -.00000086  00000+0  00000+0 0  9995
2 42967   0.0186 330.2117 0002710  98.2102 247.1886  1.00270642 31703
KOREASAT 5A             
1 42984U 17067A   26166.56663867 -.00000356  00000+0  00000+0 0  9999
2 42984   0.0118  18.7401 0000559  73.3524 128.9001  1.00271522 31514
ALCOMSAT 1              
1 43039U 17078A   26166.46795171 -.00000183  00000+0  00000+0 0  9994
2 43039   0.0367 265.8369 0002213 166.8664 334.7131  1.00269493 31270
SBIRS GEO-3 (USA 282)   
1 43162U 18009A   26166.51263339  .00000129  00000+0  00000+0 0  9997
2 43162   2.1827  12.0288 0001794  64.0110 212.9045  1.00271729 30827
AL YAH 3                
1 43174U 18012A   26166.46864505 -.00000154  00000+0  00000+0 0  9999
2 43174   1.5477  83.1277 0003848   0.0199 329.2053  1.00269963 30828
SES-14                  
1 43175U 18012B   26166.46353169 -.00000276  00000+0  00000+0 0  9994
2 43175   0.0191  24.5472 0000788  55.0745 303.4955  1.00270372  7004
GOES 17                 
1 43226U 18022A   26166.45521164 -.00000180  00000+0  00000+0 0  9997
2 43226   0.9331  85.7405 0000399  34.0768 218.2957  1.00269922 30405
HISPASAT 30W-6          
1 43228U 18023A   26166.39565486 -.00000213  00000+0  00000+0 0  9995
2 43228   0.0464  42.0718 0005656  27.7528 306.2891  1.00270123 30389
SUPERBIRD-B3            
1 43271U 18033A   26166.51433785 -.00000090  00000+0  00000+0 0  9997
2 43271   0.0103 327.9856 0000903 106.6420 176.3357  1.00271449 30041
HYLAS 4                 
1 43272U 18033B   26166.46630503 -.00000231  00000+0  00000+0 0  9996
2 43272   0.0166  18.5851 0000773  56.5712 322.9643  1.00268893 30047
IRNSS-1I                
1 43286U 18035A   26165.84199394  .00000064  00000+0  00000+0 0  9995
2 43286  28.7494  74.2326 0017858 181.5121   5.3509  1.00271722 30053
USA 283                 
1 43339U 18036A   26163.71911426  .00000000  00000+0  00000+0 0  9997
2 43339   0.0199 335.2360 0000436 187.5113 131.2828  1.00273175 25248
COSMOS 2526             
1 43432U 18037A   26166.59109389 -.00000342  00000+0  00000+0 0  9998
2 43432   0.0296  75.1129 0000685 145.5683  24.0478  1.00273847 29942
APSTAR-6C               
1 43450U 18041A   26166.49948148 -.00000315  00000+0  00000+0 0  9996
2 43450   0.0245   4.8727 0000996 335.4861 237.2442  1.00269569 29790
BANGABANDHUSAT-1        
1 43463U 18044A   26166.60596097 -.00000360  00000+0  00000+0 0  9998
2 43463   0.0189  67.5763 0001606  13.1132 160.4455  1.00270555 29694
SES-12                  
1 43488U 18049A   26166.60471554 -.00000266  00000+0  00000+0 0  9995
2 43488   0.0148   8.9290 0000700 257.9526 309.7134  1.00265471 29401
FENGYUN 2H              
1 43491U 18050A   26166.63421399 -.00000130  00000+0  00000+0 0  9996
2 43491   3.0263  79.0896 0001954 137.5757 354.9826  1.00269693 29420
BEIDOU-2 IGSO-7         
1 43539U 18057A   26165.92400608 -.00000011  00000+0  00000+0 0  9995
2 43539  55.1939 163.0777 0105015 237.9971 304.9149  1.00251741 29102
TELSTAR 19V             
1 43562U 18059A   26166.24653449 -.00000276  00000+0  00000+0 0  9995
2 43562   0.0197 163.3787 0002418 312.0896 173.8125  1.00269701 29125
TELKOM 4 (MERAH PUTIH)  
1 43587U 18064A   26166.28033464 -.00000340  00000+0  00000+0 0  9993
2 43587   0.0197  66.5028 0001226  48.8212 357.1595  1.00270117 28867
TELSTAR 18V             
1 43611U 18069A   26165.78730205 -.00000288  00000+0  00000+0 0  9998
2 43611   0.0122 311.2047 0001612 128.7151 244.5797  1.00270067 28613
AZERSPACE 2 (IS-38)     
1 43632U 18074A   26166.55310692  .00000139  00000+0  00000+0 0  9991
2 43632   0.0089 320.7444 0001190 122.0101  65.3084  1.00269873 28438
